KUIPER-00071            
1 64818U 25151C   25365.38321431  .00007283  00000+0  98280-3 0  9996
2 64818  51.8999 245.1288 0007494  15.0449 345.0735 14.79948964 25158
KUIPER-00072            
1 64819U 25151D   25365.30433823  .00003392  00000+0  50957-3 0  9994
2 64819  51.8972 225.4885 0002649  23.8739 336.2344 14.76780785 25420
KUIPER-00073            
1 64820U 25151E   25365.48459653  .00007685  00000+0  10347-2 0  9991
2 64820  51.9002 244.6761 0013402  32.8673 327.3121 14.79938360 26353
KUIPER-00074            
1 64821U 25151F   25365.36308363  .00006577  00000+0  88964-3 0  9990
2 64821  51.9019 232.7312 0013941  48.5512 311.6645 14.79948104 25326
KUIPER-00075            
1 64822U 25151G   25365.53015211  .00070862  00000+0  17430-2 0  9994
2 64822  51.8716 192.9377 0003550  45.1943 314.9333 15.39969483 25896
KUIPER-00076            
1 64823U 25151H   25365.36036971  .00006507  00000+0  88219-3 0  9991
2 64823  51.9005 235.2363 0005464  50.0925 310.0517 14.79906862 25296
KUIPER-00077            
1 64824U 25151J   25365.35500025  .00006755  00000+0  91488-3 0  9994
2 64824  51.9007 240.2677 0006227  16.4160 343.7003 14.79894278 25221
KUIPER-00078            
1 64825U 25151K   25365.39148978  .00008617  00000+0  11569-2 0  9994
2 64825  51.8989 237.5992 0008870  67.2003 292.9896 14.79952549 25260
