<?xml version="1.0" encoding="UTF-8"?>
<ndm xmlns:xsi="http://www.w3.org/2001/XMLSchema-instance" xsi:noNamespaceSchemaLocation="https://sanaregistry.org/r/ndmxml_unqualified/ndmxml-2.0.0-master-2.0.xsd">
<omm id="CCSDS_OMM_VERS" version="2.0">
<header><CREATION_DATE/><ORIGINATOR/></header><body><segment><metadata><OBJECT_NAME>KUIPER-00071</OBJECT_NAME><OBJECT_ID>2025-151C</OBJECT_ID><CENTER_NAME>EARTH</CENTER_NAME><REF_FRAME>TEME</REF_FRAME><TIME_SYSTEM>UTC</TIME_SYSTEM><MEAN_ELEMENT_THEORY>SGP4</MEAN_ELEMENT_THEORY></metadata><data><meanElements><EPOCH>2025-12-31T09:11:49.716384</EPOCH><MEAN_MOTION>14.79948964</MEAN_MOTION><ECCENTRICITY>.0007494</ECCENTRICITY><INCLINATION>51.8999</INCLINATION><RA_OF_ASC_NODE>245.1288</RA_OF_ASC_NODE><ARG_OF_PERICENTER>15.0449</ARG_OF_PERICENTER><MEAN_ANOMALY>345.0735</MEAN_ANOMALY></meanElements><tleParameters><EPHEMERIS_TYPE>0</EPHEMERIS_TYPE><CLASSIFICATION_TYPE>U</CLASSIFICATION_TYPE><NORAD_CAT_ID>64818</NORAD_CAT_ID><ELEMENT_SET_NO>999</ELEMENT_SET_NO><REV_AT_EPOCH>2515</REV_AT_EPOCH><BSTAR>.9828E-3</BSTAR><MEAN_MOTION_DOT>.7283E-4</MEAN_MOTION_DOT><MEAN_MOTION_DDOT>0</MEAN_MOTION_DDOT></tleParameters></data></segment></body></omm>
<omm id="CCSDS_OMM_VERS" version="2.0">
<header><CREATION_DATE/><ORIGINATOR/></header><body><segment><metadata><OBJECT_NAME>KUIPER-00072</OBJECT_NAME><OBJECT_ID>2025-151D</OBJECT_ID><CENTER_NAME>EARTH</CENTER_NAME><REF_FRAME>TEME</REF_FRAME><TIME_SYSTEM>UTC</TIME_SYSTEM><MEAN_ELEMENT_THEORY>SGP4</MEAN_ELEMENT_THEORY></metadata><data><meanElements><EPOCH>2025-12-31T07:18:14.823072</EPOCH><MEAN_MOTION>14.76780785</MEAN_MOTION><ECCENTRICITY>.0002649</ECCENTRICITY><INCLINATION>51.8972</INCLINATION><RA_OF_ASC_NODE>225.4885</RA_OF_ASC_NODE><ARG_OF_PERICENTER>23.8739</ARG_OF_PERICENTER><MEAN_ANOMALY>336.2344</MEAN_ANOMALY></meanElements><tleParameters><EPHEMERIS_TYPE>0</EPHEMERIS_TYPE><CLASSIFICATION_TYPE>U</CLASSIFICATION_TYPE><NORAD_CAT_ID>64819</NORAD_CAT_ID><ELEMENT_SET_NO>999</ELEMENT_SET_NO><REV_AT_EPOCH>2542</REV_AT_EPOCH><BSTAR>.50957E-3</BSTAR><MEAN_MOTION_DOT>.3392E-4</MEAN_MOTION_DOT><MEAN_MOTION_DDOT>0</MEAN_MOTION_DDOT></tleParameters></data></segment></body></omm>
<omm id="CCSDS_OMM_VERS" version="2.0">
<header><CREATION_DATE/><ORIGINATOR/></header><body><segment><metadata><OBJECT_NAME>KUIPER-00073</OBJECT_NAME><OBJECT_ID>2025-151E</OBJECT_ID><CENTER_NAME>EARTH</CENTER_NAME><REF_FRAME>TEME</REF_FRAME><TIME_SYSTEM>UTC</TIME_SYSTEM><MEAN_ELEMENT_THEORY>SGP4</MEAN_ELEMENT_THEORY></metadata><data><meanElements><EPOCH>2025-12-31T11:37:49.140192</EPOCH><MEAN_MOTION>14.79938360</MEAN_MOTION><ECCENTRICITY>.0013402</ECCENTRICITY><INCLINATION>51.9002</INCLINATION><RA_OF_ASC_NODE>244.6761</RA_OF_ASC_NODE><ARG_OF_PERICENTER>32.8673</ARG_OF_PERICENTER><MEAN_ANOMALY>327.3121</MEAN_ANOMALY></meanElements><tleParameters><EPHEMERIS_TYPE>0</EPHEMERIS_TYPE><CLASSIFICATION_TYPE>U</CLASSIFICATION_TYPE><NORAD_CAT_ID>64820</NORAD_CAT_ID><ELEMENT_SET_NO>999</ELEMENT_SET_NO><REV_AT_EPOCH>2635</REV_AT_EPOCH><BSTAR>.10347E-2</BSTAR><MEAN_MOTION_DOT>.7685E-4</MEAN_MOTION_DOT><MEAN_MOTION_DDOT>0</MEAN_MOTION_DDOT></tleParameters></data></segment></body></omm>
<omm id="CCSDS_OMM_VERS" version="2.0">
<header><CREATION_DATE/><ORIGINATOR/></header><body><segment><metadata><OBJECT_NAME>KUIPER-00074</OBJECT_NAME><OBJECT_ID>2025-151F</OBJECT_ID><CENTER_NAME>EARTH</CENTER_NAME><REF_FRAME>TEME</REF_FRAME><TIME_SYSTEM>UTC</TIME_SYSTEM><MEAN_ELEMENT_THEORY>SGP4</MEAN_ELEMENT_THEORY></metadata><data><meanElements><EPOCH>2025-12-31T08:42:50.425632</EPOCH><MEAN_MOTION>14.79948104</MEAN_MOTION><ECCENTRICITY>.0013941</ECCENTRICITY><INCLINATION>51.9019</INCLINATION><RA_OF_ASC_NODE>232.7312</RA_OF_ASC_NODE><ARG_OF_PERICENTER>48.5512</ARG_OF_PERICENTER><MEAN_ANOMALY>311.6645</MEAN_ANOMALY></meanElements><tleParameters><EPHEMERIS_TYPE>0</EPHEMERIS_TYPE><CLASSIFICATION_TYPE>U</CLASSIFICATION_TYPE><NORAD_CAT_ID>64821</NORAD_CAT_ID><ELEMENT_SET_NO>999</ELEMENT_SET_NO><REV_AT_EPOCH>2532</REV_AT_EPOCH><BSTAR>.88964E-3</BSTAR><MEAN_MOTION_DOT>.6577E-4</MEAN_MOTION_DOT><MEAN_MOTION_DDOT>0</MEAN_MOTION_DDOT></tleParameters></data></segment></body></omm>
<omm id="CCSDS_OMM_VERS" version="2.0">
<header><CREATION_DATE/><ORIGINATOR/></header><body><segment><metadata><OBJECT_NAME>KUIPER-00075</OBJECT_NAME><OBJECT_ID>2025-151G</OBJECT_ID><CENTER_NAME>EARTH</CENTER_NAME><REF_FRAME>TEME</REF_FRAME><TIME_SYSTEM>UTC</TIME_SYSTEM><MEAN_ELEMENT_THEORY>SGP4</MEAN_ELEMENT_THEORY></metadata><data><meanElements><EPOCH>2025-12-31T12:43:25.142304</EPOCH><MEAN_MOTION>15.39969483</MEAN_MOTION><ECCENTRICITY>.000355</ECCENTRICITY><INCLINATION>51.8716</INCLINATION><RA_OF_ASC_NODE>192.9377</RA_OF_ASC_NODE><ARG_OF_PERICENTER>45.1943</ARG_OF_PERICENTER><MEAN_ANOMALY>314.9333</MEAN_ANOMALY></meanElements><tleParameters><EPHEMERIS_TYPE>0</EPHEMERIS_TYPE><CLASSIFICATION_TYPE>U</CLASSIFICATION_TYPE><NORAD_CAT_ID>64822</NORAD_CAT_ID><ELEMENT_SET_NO>999</ELEMENT_SET_NO><REV_AT_EPOCH>2589</REV_AT_EPOCH><BSTAR>.1743E-2</BSTAR><MEAN_MOTION_DOT>.70862E-3</MEAN_MOTION_DOT><MEAN_MOTION_DDOT>0</MEAN_MOTION_DDOT></tleParameters></data></segment></body></omm>
<omm id="CCSDS_OMM_VERS" version="2.0">
<header><CREATION_DATE/><ORIGINATOR/></header><body><segment><metadata><OBJECT_NAME>KUIPER-00076</OBJECT_NAME><OBJECT_ID>2025-151H</OBJECT_ID><CENTER_NAME>EARTH</CENTER_NAME><REF_FRAME>TEME</REF_FRAME><TIME_SYSTEM>UTC</TIME_SYSTEM><MEAN_ELEMENT_THEORY>SGP4</MEAN_ELEMENT_THEORY></metadata><data><meanElements><EPOCH>2025-12-31T08:38:55.942944</EPOCH><MEAN_MOTION>14.79906862</MEAN_MOTION><ECCENTRICITY>.0005464</ECCENTRICITY><INCLINATION>51.9005</INCLINATION><RA_OF_ASC_NODE>235.2363</RA_OF_ASC_NODE><ARG_OF_PERICENTER>50.0925</ARG_OF_PERICENTER><MEAN_ANOMALY>310.0517</MEAN_ANOMALY></meanElements><tleParameters><EPHEMERIS_TYPE>0</EPHEMERIS_TYPE><CLASSIFICATION_TYPE>U</CLASSIFICATION_TYPE><NORAD_CAT_ID>64823</NORAD_CAT_ID><ELEMENT_SET_NO>999</ELEMENT_SET_NO><REV_AT_EPOCH>2529</REV_AT_EPOCH><BSTAR>.88219E-3</BSTAR><MEAN_MOTION_DOT>.6507E-4</MEAN_MOTION_DOT><MEAN_MOTION_DDOT>0</MEAN_MOTION_DDOT></tleParameters></data></segment></body></omm>
<omm id="CCSDS_OMM_VERS" version="2.0">
<header><CREATION_DATE/><ORIGINATOR/></header><body><segment><metadata><OBJECT_NAME>KUIPER-00077</OBJECT_NAME><OBJECT_ID>2025-151J</OBJECT_ID><CENTER_NAME>EARTH</CENTER_NAME><REF_FRAME>TEME</REF_FRAME><TIME_SYSTEM>UTC</TIME_SYSTEM><MEAN_ELEMENT_THEORY>SGP4</MEAN_ELEMENT_THEORY></metadata><data><meanElements><EPOCH>2025-12-31T08:31:12.021600</EPOCH><MEAN_MOTION>14.79894278</MEAN_MOTION><ECCENTRICITY>.0006227</ECCENTRICITY><INCLINATION>51.9007</INCLINATION><RA_OF_ASC_NODE>240.2677</RA_OF_ASC_NODE><ARG_OF_PERICENTER>16.4160</ARG_OF_PERICENTER><MEAN_ANOMALY>343.7003</MEAN_ANOMALY></meanElements><tleParameters><EPHEMERIS_TYPE>0</EPHEMERIS_TYPE><CLASSIFICATION_TYPE>U</CLASSIFICATION_TYPE><NORAD_CAT_ID>64824</NORAD_CAT_ID><ELEMENT_SET_NO>999</ELEMENT_SET_NO><REV_AT_EPOCH>2522</REV_AT_EPOCH><BSTAR>.91488E-3</BSTAR><MEAN_MOTION_DOT>.6755E-4</MEAN_MOTION_DOT><MEAN_MOTION_DDOT>0</MEAN_MOTION_DDOT></tleParameters></data></segment></body></omm>
<omm id="CCSDS_OMM_VERS" version="2.0">
<header><CREATION_DATE/><ORIGINATOR/></header><body><segment><metadata><OBJECT_NAME>KUIPER-00078</OBJECT_NAME><OBJECT_ID>2025-151K</OBJECT_ID><CENTER_NAME>EARTH</CENTER_NAME><REF_FRAME>TEME</REF_FRAME><TIME_SYSTEM>UTC</TIME_SYSTEM><MEAN_ELEMENT_THEORY>SGP4</MEAN_ELEMENT_THEORY></metadata><data><meanElements><EPOCH>2025-12-31T09:23:44.716992</EPOCH><MEAN_MOTION>14.79952549</MEAN_MOTION><ECCENTRICITY>.000887</ECCENTRICITY><INCLINATION>51.8989</INCLINATION><RA_OF_ASC_NODE>237.5992</RA_OF_ASC_NODE><ARG_OF_PERICENTER>67.2003</ARG_OF_PERICENTER><MEAN_ANOMALY>292.9896</MEAN_ANOMALY></meanElements><tleParameters><EPHEMERIS_TYPE>0</EPHEMERIS_TYPE><CLASSIFICATION_TYPE>U</CLASSIFICATION_TYPE><NORAD_CAT_ID>64825</NORAD_CAT_ID><ELEMENT_SET_NO>999</ELEMENT_SET_NO><REV_AT_EPOCH>2526</REV_AT_EPOCH><BSTAR>.11569E-2</BSTAR><MEAN_MOTION_DOT>.8617E-4</MEAN_MOTION_DOT><MEAN_MOTION_DDOT>0</MEAN_MOTION_DDOT></tleParameters></data></segment></body></omm>

</ndm>
